{
 "type": "FeatureCollection",
 "name": "zones_quadrats",
 "crs": {
  "type": "name",
  "properties": {
   "name": "urn:ogc:def:crs:EPSG::2154"
  }
 },
 "features": [
  {
   "type": "Feature",
   "properties": {
    "name": "Q25_IMG_0955",
    "quadrat": "IMG_0955",
    "rtk_point": "Q25",
    "side_m": 0.84,
    "placement_residual_m": 0.0034,
    "placement_inliers": 88
   },
   "geometry": {
    "type": "Polygon",
    "coordinates": [
     [
      [
       497976.842,
       6960105.241
      ],
      [
       497976.202,
       6960104.694
      ],
      [
       497975.655,
       6960105.335
      ],
      [
       497976.295,
       6960105.881
      ],
      [
       497976.842,
       6960105.241
      ]
     ]
    ]
   }
  },
  {
   "type": "Feature",
   "properties": {
    "name": "Q26_IMG_0957",
    "quadrat": "IMG_0957",
    "rtk_point": "Q26",
    "side_m": 0.84,
    "placement_residual_m": 0.0039,
    "placement_inliers": 166
   },
   "geometry": {
    "type": "Polygon",
    "coordinates": [
     [
      [
       497984.845,
       6960109.241
      ],
      [
       497984.116,
       6960108.807
      ],
      [
       497983.682,
       6960109.537
      ],
      [
       497984.412,
       6960109.971
      ],
      [
       497984.845,
       6960109.241
      ]
     ]
    ]
   }
  },
  {
   "type": "Feature",
   "properties": {
    "name": "Q41_IMG_0973",
    "quadrat": "IMG_0973",
    "rtk_point": "Q41",
    "side_m": 0.84,
    "placement_residual_m": 0.0033,
    "placement_inliers": 141
   },
   "geometry": {
    "type": "Polygon",
    "coordinates": [
     [
      [
       497992.869,
       6960098.944
      ],
      [
       497992.176,
       6960098.445
      ],
      [
       497991.677,
       6960099.137
      ],
      [
       497992.369,
       6960099.637
      ],
      [
       497992.869,
       6960098.944
      ]
     ]
    ]
   }
  },
  {
   "type": "Feature",
   "properties": {
    "name": "Q42_IMG_0974",
    "quadrat": "IMG_0974",
    "rtk_point": "Q42",
    "side_m": 0.84,
    "placement_residual_m": 0.0036,
    "placement_inliers": 47
   },
   "geometry": {
    "type": "Polygon",
    "coordinates": [
     [
      [
       497983.646,
       6960093.394
      ],
      [
       497982.879,
       6960093.026
      ],
      [
       497982.511,
       6960093.793
      ],
      [
       497983.278,
       6960094.161
      ],
      [
       497983.646,
       6960093.394
      ]
     ]
    ]
   }
  }
 ]
}
